{
  "type": "FeatureCollection",
  "features": [
    {
      "type": "Feature",
      "properties": {
        "norad_id": 37491,
        "name": "COSMOS 2251 DEB",
        "group": "cosmos-2251-debris",
        "lat": 1.341687824805575,
        "lon": -108.27509938851478,
        "alt_km": 1092.139085392043,
        "timestamp": "2025-12-26T07:29:18.852183+00:00",
        "meta_object_name": "COSMOS 2251 DEB",
        "meta_object_id": "1993-036BLU",
        "meta_epoch": "2025-12-25T00:03:30.917952",
        "meta_mean_motion": 13.7531974,
        "meta_eccentricity": 0.03163036,
        "meta_inclination": 73.9051,
        "meta_ra_of_asc_node": 253.5322,
        "meta_arg_of_pericenter": 244.3669,
        "meta_mean_anomaly": 112.4464,
        "meta_ephemeris_type": 0,
        "meta_classification_type": "U",
        "meta_norad_cat_id": 37491,
        "meta_element_set_no": 999,
        "meta_rev_at_epoch": 55915,
        "meta_bstar": 0.00078980531,
        "meta_mean_motion_dot": 1.066e-05,
        "meta_mean_motion_ddot": 0,
        "tle_line1": "1 37491U 93036BLU 25359.00244118  .00001066  00000+0  78981-3 0  9997",
        "tle_line2": "2 37491  73.9051 253.5322 0316303 244.3669 112.4464 13.75319740559150"
      },
      "geometry": {
        "type": "Point",
        "coordinates": [
          -108.27509938851478,
          1.341687824805575
        ]
      }
    },
    {
      "type": "Feature",
      "properties": {
        "norad_id": 37498,
        "name": "COSMOS 2251 DEB",
        "group": "cosmos-2251-debris",
        "lat": -32.510610661366314,
        "lon": 147.69362726277336,
        "alt_km": 718.1681411133395,
        "timestamp": "2025-12-26T07:29:18.852193+00:00",
        "meta_object_name": "COSMOS 2251 DEB",
        "meta_object_id": "1993-036BMB",
        "meta_epoch": "2025-12-17T05:47:45.632832",
        "meta_mean_motion": 14.54797097,
        "meta_eccentricity": 0.00121661,
        "meta_inclination": 74.035,
        "meta_ra_of_asc_node": 175.365,
        "meta_arg_of_pericenter": 238.5243,
        "meta_mean_anomaly": 121.4732,
        "meta_ephemeris_type": 0,
        "meta_classification_type": "U",
        "meta_norad_cat_id": 37498,
        "meta_element_set_no": 999,
        "meta_rev_at_epoch": 65420,
        "meta_bstar": 0.00050498457,
        "meta_mean_motion_dot": 2.139e-05,
        "meta_mean_motion_ddot": 0,
        "tle_line1": "1 37498U 93036BMB 25351.24150038  .00002139  00000+0  50498-3 0  9994",
        "tle_line2": "2 37498  74.0350 175.3650 0012166 238.5243 121.4732 14.54797097654202"
      },
      "geometry": {
        "type": "Point",
        "coordinates": [
          147.69362726277336,
          -32.510610661366314
        ]
      }
    },
    {
      "type": "Feature",
      "properties": {
        "norad_id": 37499,
        "name": "COSMOS 2251 DEB",
        "group": "cosmos-2251-debris",
        "lat": -70.94674724312624,
        "lon": 173.30735477794647,
        "alt_km": 790.9074569068589,
        "timestamp": "2025-12-26T07:29:18.852203+00:00",
        "meta_object_name": "COSMOS 2251 DEB",
        "meta_object_id": "1993-036BMC",
        "meta_epoch": "2025-12-25T13:32:33.605376",
        "meta_mean_motion": 14.34354595,
        "meta_eccentricity": 0.0027475,
        "meta_inclination": 74.0386,
        "meta_ra_of_asc_node": 298.7117,
        "meta_arg_of_pericenter": 11.2548,
        "meta_mean_anomaly": 348.9212,
        "meta_ephemeris_type": 0,
        "meta_classification_type": "U",
        "meta_norad_cat_id": 37499,
        "meta_element_set_no": 999,
        "meta_rev_at_epoch": 85333,
        "meta_bstar": 0.00018715,
        "meta_mean_motion_dot": 5.02e-06,
        "meta_mean_motion_ddot": 0,
        "tle_line1": "1 37499U 93036BMC 25359.56427784  .00000502  00000+0  18715-3 0  9991",
        "tle_line2": "2 37499  74.0386 298.7117 0027475  11.2548 348.9212 14.34354595853337"
      },
      "geometry": {
        "type": "Point",
        "coordinates": [
          173.30735477794647,
          -70.94674724312624
        ]
      }
    },
    {
      "type": "Feature",
      "properties": {
        "norad_id": 37528,
        "name": "COSMOS 2251 DEB",
        "group": "cosmos-2251-debris",
        "lat": 51.273367911963355,
        "lon": -104.279868271506,
        "alt_km": 725.6578803883676,
        "timestamp": "2025-12-26T07:29:18.852213+00:00",
        "meta_object_name": "COSMOS 2251 DEB",
        "meta_object_id": "1993-036BNH",
        "meta_epoch": "2025-12-25T12:42:07.093728",
        "meta_mean_motion": 14.50565382,
        "meta_eccentricity": 0.0021139,
        "meta_inclination": 74.0377,
        "meta_ra_of_asc_node": 98.1019,
        "meta_arg_of_pericenter": 245.0707,
        "meta_mean_anomaly": 114.8257,
        "meta_ephemeris_type": 0,
        "meta_classification_type": "U",
        "meta_norad_cat_id": 37528,
        "meta_element_set_no": 999,
        "meta_rev_at_epoch": 86116,
        "meta_bstar": 0.00049222,
        "meta_mean_motion_dot": 1.907e-05,
        "meta_mean_motion_ddot": 0,
        "tle_line1": "1 37528U 93036BNH 25359.52924877  .00001907  00000+0  49222-3 0  9992",
        "tle_line2": "2 37528  74.0377  98.1019 0021139 245.0707 114.8257 14.50565382861163"
      },
      "geometry": {
        "type": "Point",
        "coordinates": [
          -104.279868271506,
          51.273367911963355
        ]
      }
    },
    {
      "type": "Feature",
      "properties": {
        "norad_id": 37530,
        "name": "COSMOS 2251 DEB",
        "group": "cosmos-2251-debris",
        "lat": -26.922879019446654,
        "lon": -59.56980342326541,
        "alt_km": 766.6209749456111,
        "timestamp": "2025-12-26T07:29:18.852224+00:00",
        "meta_object_name": "COSMOS 2251 DEB",
        "meta_object_id": "1993-036BNK",
        "meta_epoch": "2025-12-21T14:21:51.053184",
        "meta_mean_motion": 14.34514444,
        "meta_eccentricity": 0.00262828,
        "meta_inclination": 74.0362,
        "meta_ra_of_asc_node": 317.4173,
        "meta_arg_of_pericenter": 16.8555,
        "meta_mean_anomaly": 103.2676,
        "meta_ephemeris_type": 0,
        "meta_classification_type": "U",
        "meta_norad_cat_id": 37530,
        "meta_element_set_no": 999,
        "meta_rev_at_epoch": 85359,
        "meta_bstar": 0.00021615779,
        "meta_mean_motion_dot": 5.86e-06,
        "meta_mean_motion_ddot": 0,
        "tle_line1": "1 37530U 93036BNK 25355.59850756  .00000586  00000+0  21616-3 0  9991",
        "tle_line2": "2 37530  74.0362 317.4173 0026282  16.8555 103.2676 14.34514444853597"
      },
      "geometry": {
        "type": "Point",
        "coordinates": [
          -59.56980342326541,
          -26.922879019446654
        ]
      }
    },
    {
      "type": "Feature",
      "properties": {
        "norad_id": 37532,
        "name": "COSMOS 2251 DEB",
        "group": "cosmos-2251-debris",
        "lat": 39.846793854490635,
        "lon": -3.2420873049439436,
        "alt_km": 757.2224715882539,
        "timestamp": "2025-12-26T07:29:18.852234+00:00",
        "meta_object_name": "COSMOS 2251 DEB",
        "meta_object_id": "1993-036BNM",
        "meta_epoch": "2025-12-24T19:59:09.008160",
        "meta_mean_motion": 14.42423835,
        "meta_eccentricity": 0.00162225,
        "meta_inclination": 74.0486,
        "meta_ra_of_asc_node": 193.3082,
        "meta_arg_of_pericenter": 292.8067,
        "meta_mean_anomaly": 87.0164,
        "meta_ephemeris_type": 0,
        "meta_classification_type": "U",
        "meta_norad_cat_id": 37532,
        "meta_element_set_no": 999,
        "meta_rev_at_epoch": 85090,
        "meta_bstar": 0.00019035251,
        "meta_mean_motion_dot": 6.04e-06,
        "meta_mean_motion_ddot": 0,
        "tle_line1": "1 37532U 93036BNM 25358.83274315  .00000604  00000+0  19035-3 0  9997",
        "tle_line2": "2 37532  74.0486 193.3082 0016222 292.8067  87.0164 14.42423835850908"
      },
      "geometry": {
        "type": "Point",
        "coordinates": [
          -3.2420873049439436,
          39.846793854490635
        ]
      }
    },
    {
      "type": "Feature",
      "properties": {
        "norad_id": 37533,
        "name": "COSMOS 2251 DEB",
        "group": "cosmos-2251-debris",
        "lat": -13.703838529148648,
        "lon": -8.121541607722307,
        "alt_km": 754.1418085079231,
        "timestamp": "2025-12-26T07:29:18.852244+00:00",
        "meta_object_name": "COSMOS 2251 DEB",
        "meta_object_id": "1993-036BNN",
        "meta_epoch": "2025-12-17T06:38:38.162976",
        "meta_mean_motion": 14.12190824,
        "meta_eccentricity": 0.0157786,
        "meta_inclination": 74.0692,
        "meta_ra_of_asc_node": 183.8069,
        "meta_arg_of_pericenter": 239.4795,
        "meta_mean_anomaly": 119.0691,
        "meta_ephemeris_type": 0,
        "meta_classification_type": "U",
        "meta_norad_cat_id": 37533,
        "meta_element_set_no": 999,
        "meta_rev_at_epoch": 62985,
        "meta_bstar": 0.0010470743,
        "meta_mean_motion_dot": 2.138e-05,
        "meta_mean_motion_ddot": 0,
        "tle_line1": "1 37533U 93036BNN 25351.27683059  .00002138  00000+0  10471-2 0  9996",
        "tle_line2": "2 37533  74.0692 183.8069 0157786 239.4795 119.0691 14.12190824629858"
      },
      "geometry": {
        "type": "Point",
        "coordinates": [
          -8.121541607722307,
          -13.703838529148648
        ]
      }
    }
  ]
}